#cP2026  5 13  0  0  0.00000000      96 ORBIT IGc20 HLM  IGS
## 2418 259200.00000000   900.00000000 61173 0.0000000000000
+   32   G01G02G03G04G05G06G07G08G09G10G11G12G13G14G15G16G17
+        G18G19G20G21G22G23G24G25G26G27G28G29G30G31G32  0  0
+          0  0  0  0  0  0  0  0  0  0  0  0  0  0  0  0  0
+          0  0  0  0  0  0  0  0  0  0  0  0  0  0  0  0  0
+          0  0  0  0  0  0  0  0  0  0  0  0  0  0  0  0  0
++         2  2  2  1  2  1  1  1  2  2  1  2  2  2  1  2  1
++         1  2  2  2  1  2  1  1  1  3  2  1  1  1  1  0  0
++         0  0  0  0  0  0  0  0  0  0  0  0  0  0  0  0  0
++         0  0  0  0  0  0  0  0  0  0  0  0  0  0  0  0  0
++         0  0  0  0  0  0  0  0  0  0  0  0  0  0  0  0  0
%c G  cc GPS ccc cccc cccc cccc cccc ccccc ccccc ccccc ccccc
%c cc cc ccc ccc cccc cccc cccc cccc ccccc ccccc ccccc ccccc
%f  1.2500000  1.025000000  0.00000000000  0.000000000000000
%f  0.0000000  0.000000000  0.00000000000  0.000000000000000
%i    0    0    0    0      0      0      0      0         0
%i    0    0    0    0      0      0      0      0         0
/* FINAL ORBIT COMBINATION FROM WEIGHTED AVERAGE OF:        
/* cod emr esa gfz grg jgx jpl mit ngs sio                  
/* REFERENCED TO IGS TIME (IGST) AND TO WEIGHTED MEAN POLE: 
/* PCV:IGS20_2417 OL/AL:FES2014b NONE     Y  ORB:CMB CLK:CMB
*  2026  5 13 17 15  0.00000000
PG01  20333.616310  15465.932531  -7429.581201    275.567207  5  5  3  63       
PG02  13549.900744  15830.267787 -16420.690982     97.943688  5  6  4  77       
PG03  11561.540484  19671.851501  13484.650108    465.884199  4  5  4  82       
PG04  13962.467163   7746.259768  21285.900551     56.834025  1  4  3  47       
PG05  -5442.029174 -25976.236777   -345.195198   -232.940762  5  7  5  86       
PG06  15544.934825  -7936.457365  20128.328210   -603.731086  4  1  4  49       
PG07  25474.119006   6299.561259  -4644.689771   -184.250004  2  4  2  53       
PG08   3912.185837  16484.722116 -20543.803418    443.684757  5  6  2  68       
PG09  20604.934667  -2504.653307  16517.092492    750.461383  7  5  8  54       
PG10 -11495.195114  12360.185309 -20142.132160   -585.325883  6  4  6  60       
PG11   1532.344359 -15642.282765  21472.052464   -341.537405  2  5  4  64       
PG12  -9980.089218 -21538.544821  11624.973753   -607.697838  4  3  3  59       
PG13 -12090.271848 -20788.894124  11279.904518    297.263089  5  9  7 100       
PG14  13820.487529  -9158.696740 -20592.103886    746.163078  2  3  3  67       
PG15  -6221.769261 -15871.471642 -20908.654556    411.251283  3  3  3  72       
PG16  -1076.978325  25939.699932   3985.596267    262.414138  5  8  5  76       
PG17  23018.523537 -12664.141985  -4416.733132   -134.219644  1  5  5  56       
PG18 -25099.885244  -4517.471771  -7862.044736   -353.473465  4  4  4  59       
PG19  19295.282209 -17007.684540   5278.254636    699.658363  2  4  5  54       
PG20   3081.930929 -19122.270492 -18120.060312    152.684764  4  6  5  58       
PG21   2403.909382 -25118.053066   8231.311867    414.440826  5  8  5  85       
PG22  11488.913151 -15894.285651 -17730.363830     -2.826018  2  3  5  75       
PG23 -14899.263287  -1696.197734 -21874.628950    647.026770  4  4  3  56       
PG24 -17072.073939 -15365.608667 -14181.409086      9.154312  5  5  3  92       
PG25 -15530.125599  -9945.640718  18816.920975    422.939877  4  2  4  66       
PG26  -5834.413947  21039.392052  14605.729919   -364.625306  3  3  3  71       
PG27  -7249.363983  20385.468227 -15476.908493 999999.999999  7  7 10           
PG28 -16066.424944   8579.344420  19343.354735   -530.569315  5  2  5  76       
PG29 -20235.456983   -657.260278  17235.699832   -322.064214  4  5  1  55       
PG30  21270.436852  -4081.582354 -15335.666460    221.223160  4  4  4  44       
PG31  -6542.675437  13757.803225  21474.503928   -149.386717  2  3  1  77       
PG32 -20577.210674  16629.494805   -268.886232     52.065806  3  3  3  60       
*  2026  5 13 17 30  0.00000000
PG01  19325.628252  15285.150746 -10032.880504    275.558655  5  6  3  59       
PG02  11556.861876  15458.386158 -18117.040165     97.950314  6  6  4  79       
PG03  11674.573096  21098.555837  11057.592770    465.870077  4  5  4  84       
PG04  12063.540772   9300.084807  21803.655836     56.835255  1  4  3  10       
PG05  -5213.339863 -25880.734580   2548.868260   -232.941270  5  7  5  80       
PG06  17574.387146  -7079.329309  18739.434896   -603.727802  4  1  4  62       
PG07  25802.298691   6686.913296  -1863.745687   -184.253954  2  4  2  68       
PG08   2176.896483  17953.707958 -19491.236305    443.677986  5  6  2  61       
PG09  19218.797095  -1052.750378  18237.612583    750.457545  8  6  8  75       
PG10 -11983.448243   9989.690407 -21163.404088   -585.323877  6  3  6  69       
PG11   3829.317770 -14750.557335  21807.757853   -341.526058  1  5  3  58       
PG12  -9888.944187 -22782.978485   9122.250545   -607.697403  4  4  4  75       
PG13 -12121.803887 -21956.497803   8748.015648    297.287113  4 10  8  97       
PG14  14311.918799  -6785.982849 -21191.818674    746.164007  2  4  3  69       
PG15  -4726.380287 -17533.655827 -19918.783668    411.254517  3  4  3  80       
PG16  -1433.748150  25303.877470   6771.008608    262.420371  4  7  5  80       
PG17  22608.554352 -12049.447879  -7149.225842   -134.226927  1  4  5  58       
PG18 -25726.985176  -4961.750741  -5130.821970   -353.465127  3  5  4  54       
PG19  19842.769634 -17020.608905   2443.330068    699.659259  2  3  5  34       
PG20   4662.669932 -20333.081557 -16390.045717    152.699810  4  6  4  63       
PG21   2805.269627 -24080.448182  10807.064700    414.439994  4  7  6  91       
PG22  11823.994807 -13752.577754 -19185.134552     -2.819810  2  3  5  80       
PG23 -15374.239461  -4121.975177 -21239.910055    647.030614  4  4  3  81       
PG24 -15424.485600 -15190.423664 -16162.857161      9.171002  5  5  4  94       
PG25 -15827.396551 -12064.870579  17322.281876    422.937278  4  3  4  85       
PG26  -6607.912712  19346.707138  16501.679334   -364.629066  3  3  4  90       
PG27  -8602.960204  21286.737989 -13336.862902 999999.999999  8  7 10           
PG28 -18051.478434   7803.786166  17866.041267   -530.559823  5  2  5  87       
PG29 -18656.017363  -1994.382436  18822.882700   -322.057296  4  5  1  83       
PG30  22773.775836  -3328.727547 -13269.332351    221.235421  4  4  4  64       
PG31  -8880.562539  12859.490621  21220.488921   -149.384637  3  3  1  73       
PG32 -20570.213574  16294.074454  -3142.047956     52.084087  3  3  3  73       
*  2026  5 13 17 45  0.00000000
PG01  18042.636863  15058.608066 -12464.355511    275.549862  5  6  3  60       
PG02   9368.355805  15158.818015 -19498.469260     97.957441  6  6  4  82       
PG03  11804.382668  22235.188240   8439.508661    465.855930  4  6  4  90       
PG04  10222.111407  10980.192646  21947.810607     56.836396  1  4  3  33       
PG05  -4884.615807 -25485.356297   5398.861894   -232.941642  4  7  4  80       
PG06  19481.253186  -6390.598158  17031.256495   -603.724535  4  1  4  54       
PG07  25848.483958   6965.288796    948.767857   -184.257869  2  4  2  58       
PG08    605.816295  19408.909758 -18104.378757    443.671262  5  6  3  69       
PG09  17786.477080    598.083546  19642.713102    750.453649  8  7  7  48       
PG10 -12625.998861   7559.076239 -21809.316997   -585.321880  5  2  6  83       
PG11   6186.675939 -13975.353245  21770.109858   -341.514711  1  5  3  75       
PG12  -9812.607812 -23739.340450   6460.696247   -607.697468  4  5  4  78       
PG13 -12131.302024 -22837.601190   6065.601347    297.311041  4 10  8 103       
PG14  14928.432097  -4396.978902 -21422.623078    746.164891  2  4  2  67       
PG15  -3390.108665 -19168.309080 -18600.937674    411.257331  3  4  4  76       
PG16  -1873.743016  24376.780762   9435.456048    262.426324  5  7  5  84       
PG17  22003.259222 -11213.133480  -9759.153733   -134.234662  1  4  4  53       
PG18 -26078.315840  -5278.896280  -2312.643660   -353.456816  3  5  4  43       
PG19  20131.527711 -16858.132398   -435.122429    699.660157  2  3  5  68       
PG20   6028.327140 -21473.462116 -14376.991994    152.714904  4  6  4  85       
PG21   3323.199158 -22791.110719  13196.462892    414.439222  4  7  7  67       
PG22  12292.528849 -11481.643266 -20303.764439     -2.813737  2  3  5  80       
PG23 -15960.724446  -6424.590881 -20238.974576    647.034456  4  4  3  79       
PG24 -13570.740407 -15062.003433 -17879.994011      9.187664  5  5  4  74       
PG25 -16179.814295 -13981.299588  15523.546312    422.934687  4  3  4  60       
PG26  -7524.583132  17503.964403  18104.269046   -364.632701  4  3  4  84       
PG27  -9734.055370  22075.755357 -10967.115439 999999.999999  9  8 11           
PG28 -19895.536027   7179.151618  16081.613379   -530.550400  6  2  5  75       
PG29 -17023.963829  -3516.850301  20086.761890   -322.050543  4  5  2  55       
PG30  24072.670852  -2717.029232 -10974.786841    221.247698  4  4  4  59       
PG31 -11209.272697  12096.427905  20592.728003   -149.382256  3  3  1  82       
PG32 -20351.120866  15728.929947  -5960.297517     52.102321  3  4  3  79       
EOF
